[{"OBJECT_NAME":"ORBITER SN3","OBJECT_ID":"2023-084AE","EPOCH":"2026-03-09T23:12:21.976128","MEAN_MOTION":15.32943891,"ECCENTRICITY":0.00075889,"INCLINATION":97.61,"RA_OF_ASC_NODE":206.6768,"ARG_OF_PERICENTER":331.7947,"MEAN_ANOMALY":28.2883,"EPHEMERIS_TYPE":0,"CLASSIFICATION_TYPE":"U","NORAD_CAT_ID":56960,"ELEMENT_SET_NO":999,"REV_AT_EPOCH":15228,"BSTAR":0.00032835432,"MEAN_MOTION_DOT":0.00010378,"MEAN_MOTION_DDOT":0},{"OBJECT_NAME":"STARLINK-35209","OBJECT_ID":"2025-210Q","EPOCH":"2026-03-09T23:19:08.679072","MEAN_MOTION":15.30201113,"ECCENTRICITY":0.0001097,"INCLINATION":53.161,"RA_OF_ASC_NODE":305.813,"ARG_OF_PERICENTER":95.5188,"MEAN_ANOMALY":264.5938,"EPHEMERIS_TYPE":0,"CLASSIFICATION_TYPE":"U","NORAD_CAT_ID":65636,"ELEMENT_SET_NO":999,"REV_AT_EPOCH":2777,"BSTAR":0.0010812799,"MEAN_MOTION_DOT":0.00031803,"MEAN_MOTION_DDOT":0}]
